OBJECT_NAME,OBJECT_ID,EPOCH,MEAN_MOTION,ECCENTRICITY,INCLINATION,RA_OF_ASC_NODE,ARG_OF_PERICENTER,MEAN_ANOMALY,EPHEMERIS_TYPE,CLASSIFICATION_TYPE,NORAD_CAT_ID,ELEMENT_SET_NO,REV_AT_EPOCH,BSTAR,MEAN_MOTION_DOT,MEAN_MOTION_DDOT
LUDI TANCE 1-01A (L-SAR 01A),2022-007A,2026-06-04T04:57:07.757856,14.88416820,.0001617,97.8105,162.8107,90.5018,269.6384,0,U,51284,999,23654,.78512E-4,.673E-5,0
LUDI TANCE 1-01B (L-SAR 01B),2022-018A,2026-06-04T04:08:42.406656,14.88419060,.0001551,97.8103,162.7733,93.2884,266.8510,0,U,51822,999,23177,.84897E-4,.733E-5,0
JILIN-1 GAOFEN 03D15,2022-019R,2026-06-04T00:18:45.555264,16.19828954,.0011161,97.3604,252.7669,254.8481,105.1574,0,U,51839,999,23803,.95262E-3,.1785565E-1,.24116E-5
JILIN-1 GAOFEN 03D12,2022-019T,2026-06-04T00:27:00.998784,16.28646434,.0013572,97.3516,252.7835,258.2597,101.7174,0,U,51841,999,23804,.91402E-3,.3595704E-1,.24558E-5
2022-023F,2022-023F,2026-06-04T00:50:10.207104,15.18125525,.0128764,63.4460,318.1932,343.2210,16.4660,0,U,51951,999,23571,.70383E-3,.17757E-3,0
MERIDIAN 10,2022-030A,2026-06-04T00:14:43.732032,2.00615010,.6780054,62.6784,142.2055,272.8646,17.6775,0,U,52145,999,3076,0,.208E-5,0
OMNI-L1,2022-033A,2026-06-04T00:27:53.252640,14.82697737,.0004477,97.8393,234.4528,343.4429,16.6638,0,U,52157,999,22550,.2995E-3,.2364E-4,0
ENMAP,2022-033C,2026-06-04T03:22:19.249248,14.74977574,.0001394,97.9793,237.5749,81.6933,278.4434,0,U,52159,999,22473,.1292E-3,.818E-5,0
ARCSAT-1,2022-033E,2026-06-04T01:11:00.727008,15.53284071,.0003634,97.2750,247.1298,231.2611,128.8318,0,U,52161,999,23366,.24073E-3,.15077E-3,0
GLOBAL-18,2022-034B,2026-06-03T14:44:56.794272,15.45666291,.00037754,52.9827,321.4778,206.8115,153.2695,0,U,52196,999,23486,.50017568E-3,.24165E-3,0
GAOFEN-3 03,2022-035A,2026-06-04T04:28:41.845152,14.42212932,.000103,98.4058,163.9556,94.5919,265.5388,0,U,52200,999,21897,-.26428E-4,-.131E-5,0
DAQI-1,2022-039A,2026-06-04T04:07:24.703680,14.57669355,.0002693,98.1488,94.2937,315.5022,44.5961,0,U,52257,999,22004,.8322E-4,.335E-5,0
BRO-6,2022-047AE,2026-06-04T03:53:48.882912,15.49631539,.0005814,97.3402,245.9764,119.3862,240.7971,0,U,52422,999,22913,.70625E-3,.39137E-3,0
JILIN-1 GAOFEN 3D27,2022-048B,2026-06-04T02:54:33.859872,15.72370913,.0002857,97.5707,267.9042,107.6664,252.4911,0,U,52444,999,22742,.85335E-3,.114273E-2,0
JILIN-1 GAOFEN 3D28,2022-048C,2026-06-04T03:27:06.977664,15.74955124,.0002299,97.5640,268.0309,146.6517,213.4892,0,U,52445,999,22747,.91925E-3,.137828E-2,0
VIGORIDE-3,2022-057AE,2026-06-03T15:41:34.139040,15.27129654,.00087855,97.6595,294.2724,163.0539,197.0995,0,U,52760,999,22309,.2471763E-3,.6505E-4,0
ION SCV-006,2022-057AF,2026-06-04T03:33:04.393728,15.44954963,.0017974,97.6094,303.1489,158.1442,202.0576,0,U,52761,999,22410,.31358E-3,.14764E-3,0
SHERPA-AC1,2022-057AH,2026-06-03T07:44:29.503680,15.36058286,.00086669,97.6674,302.9744,135.8969,224.2967,0,U,52763,999,22357,.2357116E-3,.8201E-4,0
OMNI-L2,2022-057AR,2026-06-03T21:11:52.077696,14.81333559,.0007003,97.4720,218.1356,21.9394,338.2118,0,U,52771,999,21842,.22191E-3,.1686E-4,0
STEP CUBE LAB-II,2022-065D,2026-06-04T05:05:32.115264,14.63281667,.0009876,98.2215,299.1548,68.4248,291.8005,0,U,52897,999,20960,.19108E-3,.938E-5,0
RANDEV,2022-065E,2026-06-04T03:33:34.716672,14.63668333,.000924,98.2199,299.4372,69.1449,291.0742,0,U,52898,999,20934,.21016E-3,.1046E-4,0
SNUGLITE-II,2022-065F,2026-06-02T19:38:11.355072,14.64318814,.00086986,98.2186,298.6759,72.9663,287.2492,0,U,52899,999,20889,.2267761E-3,.1149E-4,0
MIMAN,2022-065G,2026-06-04T04:19:23.200032,14.61829457,.0008824,98.2246,297.7293,70.9014,289.3142,0,U,52900,999,20854,.15449E-3,.724E-5,0
STARLINK-4362,2022-077A,2026-06-03T23:22:41.329344,15.05493556,.0001936,97.4266,334.5050,205.0046,155.1088,0,U,53043,999,21389,-.15161E-2,-.21775E-3,0
LARES-2,2022-080A,2026-06-03T13:15:00.088704,6.38965171,.00053798,70.1655,310.0052,337.8766,22.1504,0,U,53105,999,9079,0,-.12E-6,0
GREENCUBE (IO-117),2022-080E,2026-06-01T11:09:37.753056,6.42583280,.00088692,70.1435,303.7143,293.3663,66.6064,0,U,53109,999,9105,0,-.3E-7,0
STARLINK-4410,2022-084R,2026-06-04T04:00:03.000096,15.26491967,.0001534,97.5993,215.9917,94.6644,170.9424,0,U,53204,999,584,.268E-2,.7046E-3,0
