LUDI TANCE 1-01A (L-SA*)
1 51284U 22007A   26155.20633979  .00000673  00000+0  78512-4 0  9991
2 51284  97.8105 162.8107 0001617  90.5018 269.6384 14.88416820236545
LUDI TANCE 1-01B (L-SA*)
1 51822U 22018A   26155.17271304  .00000733  00000+0  84897-4 0  9997
2 51822  97.8103 162.7733 0001551  93.2884 266.8510 14.88419060231772
JILIN-1 GAOFEN 03D15    
1 51839U 22019R   26155.01302726  .01785565  24116-5  95262-3 0  9993
2 51839  97.3604 252.7669 0011161 254.8481 105.1574 16.19828954238038
JILIN-1 GAOFEN 03D12    
1 51841U 22019T   26155.01876156  .03595704  24558-5  91402-3 0  9997
2 51841  97.3516 252.7835 0013572 258.2597 101.7174 16.28646434238042
2022-023F               
1 51951U 22023F   26155.03484036  .00017757  00000+0  70383-3 0  9997
2 51951  63.4460 318.1932 0128764 343.2210  16.4660 15.18125525235712
MERIDIAN 10             
1 52145U 22030A   26155.01022838  .00000208  00000+0  00000+0 0  9995
2 52145  62.6784 142.2055 6780054 272.8646  17.6775  2.00615010 30760
OMNI-L1                 
1 52157U 22033A   26155.01936635  .00002364  00000+0  29950-3 0  9994
2 52157  97.8393 234.4528 0004477 343.4429  16.6638 14.82697737225508
ENMAP                   
1 52159U 22033C   26155.14050057  .00000818  00000+0  12920-3 0  9996
2 52159  97.9793 237.5749 0001394  81.6933 278.4434 14.74977574224737
ARCSAT-1                
1 52161U 22033E   26155.04931397  .00015077  00000+0  24073-3 0  9998
2 52161  97.2750 247.1298 0003634 231.2611 128.8318 15.53284071233669
GLOBAL-18               
1 52196U 22034B   26154.61454623  .00024165  00000+0  50018-3 0  9997
2 52196  52.9827 321.4778 0003775 206.8115 153.2695 15.45666291234864
GAOFEN-3 03             
1 52200U 22035A   26155.18659543 -.00000131  00000+0 -26428-4 0  9993
2 52200  98.4058 163.9556 0001030  94.5919 265.5388 14.42212932218975
DAQI-1                  
1 52257U 22039A   26155.17181370  .00000335  00000+0  83220-4 0  9993
2 52257  98.1488  94.2937 0002693 315.5022  44.5961 14.57669355220041
BRO-6                   
1 52422U 22047AE  26155.16237133  .00039137  00000+0  70625-3 0  9990
2 52422  97.3402 245.9764 0005814 119.3862 240.7971 15.49631539229130
JILIN-1 GAOFEN 3D27     
1 52444U 22048B   26155.12122523  .00114273  00000+0  85335-3 0  9996
2 52444  97.5707 267.9042 0002857 107.6664 252.4911 15.72370913227427
JILIN-1 GAOFEN 3D28     
1 52445U 22048C   26155.14383076  .00137828  00000+0  91925-3 0  9994
2 52445  97.5640 268.0309 0002299 146.6517 213.4892 15.74955124227477
VIGORIDE-3              
1 52760U 22057AE  26154.65386735  .00006505  00000+0  24718-3 0  9997
2 52760  97.6595 294.2724 0008785 163.0539 197.0995 15.27129654223096
ION SCV-006             
1 52761U 22057AF  26155.14796752  .00014764  00000+0  31358-3 0  9991
2 52761  97.6094 303.1489 0017974 158.1442 202.0576 15.44954963224100
SHERPA-AC1              
1 52763U 22057AH  26154.32256370  .00008201  00000+0  23571-3 0  9996
2 52763  97.6674 302.9744 0008666 135.8969 224.2967 15.36058286223575
OMNI-L2                 
1 52771U 22057AR  26154.88324164  .00001686  00000+0  22191-3 0  9990
2 52771  97.4720 218.1356 0007003  21.9394 338.2118 14.81333559218422
STEP CUBE LAB-II        
1 52897U 22065D   26155.21217726  .00000938  00000+0  19108-3 0  9994
2 52897  98.2215 299.1548 0009876  68.4248 291.8005 14.63281667209606
RANDEV                  
1 52898U 22065E   26155.14831848  .00001046  00000+0  21016-3 0  9996
2 52898  98.2199 299.4372 0009240  69.1449 291.0742 14.63668333209342
SNUGLITE-II             
1 52899U 22065F   26153.81818698  .00001149  00000+0  22678-3 0  9996
2 52899  98.2186 298.6759 0008698  72.9663 287.2492 14.64318814208890
MIMAN                   
1 52900U 22065G   26155.18012963  .00000724  00000+0  15449-3 0  9998
2 52900  98.2246 297.7293 0008824  70.9014 289.3142 14.61829457208546
STARLINK-4362           
1 53043U 22077A   26154.97408946 -.00021775  00000+0 -15161-2 0  9997
2 53043  97.4266 334.5050 0001936 205.0046 155.1088 15.05493556213891
LARES-2                 
1 53105U 22080A   26154.55208436 -.00000012  00000+0  00000+0 0  9999
2 53105  70.1655 310.0052 0005379 337.8766  22.1504  6.38965171 90790
GREENCUBE (IO-117)      
1 53109U 22080E   26152.46502029 -.00000003  00000+0  00000+0 0  9996
2 53109  70.1435 303.7143 0008869 293.3663  66.6064  6.42583280 91055
STARLINK-4410           
1 53204U 22084R   26155.16670139  .00070460  00000+0  26800-2 0  9996
2 53204  97.5993 215.9917 0001534  94.6644 170.9424 15.26491967  5842
